SUOMI NPP               
1 37849U 11061A   26188.78147397  .00000056  00000+0  47617-4 0  9990
2 37849  98.7955 129.5172 0000567 270.2245  89.8866 14.19521584761361
YAOGAN-12               
1 37875U 11066B   26188.84605229  .00001576  00000+0  62275-4 0  9999
2 37875  97.1133 226.4444 0010575 145.2785 214.9146 15.26842264815193
BEIDOU-2 M4             
1 38251U 12018B   26186.91456642 -.00000061  00000+0  00000+0 0  9997
2 38251  55.6406 303.4567 0011823 273.7127  86.1743  1.86229838 96291
ARIRANG-3 (KOMPSAT-3)   
1 38338U 12025B   26188.83547902  .00000346  00000+0  77980-4 0  9995
2 38338  98.1180 145.9403 0006588  57.8211 302.3629 14.62224753754367
METOP-B                 
1 38771U 12049A   26188.74376807  .00000069  00000+0  51499-4 0  9995
2 38771  98.6493 239.8318 0001110 301.4211  58.6858 14.21444955716188
SJ-9A                   
1 38860U 12056A   26188.77635030  .00000879  00000+0  10736-3 0  9998
2 38860  97.6721 159.9849 0025299 186.0889 174.0022 14.85518838702647
COSMOS 2484 (RODNIK-S 6)
1 39059U 13001C   26188.83289869 -.00000015  00000+0 -17871-3 0  9993
2 39059  82.4999 209.0568 0025978 351.9015   8.1642 12.42939928611125
SARAL                   
1 39086U 13009A   26188.78046958  .00000065  00000+0  39936-4 0  9995
2 39086  98.5555  15.0872 0001253 187.5932 172.5233 14.32894453698553
STRAND-1                
1 39090U 13009E   26188.45511461  .00000234  00000+0  93038-4 0  9991
2 39090  98.3931   8.1913 0008963 162.7350 197.4144 14.37175624699978
BRITE-AUSTRIA           
1 39091U 13009F   26188.75538072  .00000139  00000+0  61770-4 0  9994
2 39091  98.4005   7.6829 0010305 172.0296 188.1056 14.36550382700001
GAOFEN-1                
1 39150U 13018A   26188.86765094 -.00000069  00000+0 -26367-5 0  9996
2 39150  97.9083 260.5149 0016397 195.0575 165.0148 14.76512222711298
NEE-01 PEGASO           
1 39151U 13018B   26187.89325462  .00002680  00000+0  25827-3 0  9997
2 39151  98.1252 332.6981 0013984  99.0383 261.2419 14.93765912713640
PROBA-V                 
1 39159U 13021A   26188.78283469  .00000092  00000+0  58216-4 0  9992
2 39159  98.3598 166.3739 0005416  76.9126 283.2658 14.23602409684040
ARIRANG-5 (KOMPSAT-5)   
1 39227U 13042A   26188.85012716  .00001318  00000+0  98459-4 0  9999
2 39227  97.6219  15.2598 0005359  74.8920 285.2899 15.04516696706965
GONETS-M 5              
1 39249U 13048A   26188.88309909  .00000008  00000+0 -15271-4 0  9992
2 39249  82.4850 330.4791 0017045 165.0062 195.1526 12.42892336581452
GONETS-M 7              
1 39251U 13048C   26188.84568032  .00000105  00000+0  68507-3 0  9991
2 39251  82.4917 333.4354 0017842 166.4293 193.7270 12.42915459581400
FENGYUN 3C              
1 39260U 13052A   26188.89245942  .00000072  00000+0  57871-4 0  9999
2 39260  98.4992 161.8178 0014018 328.2003  31.8324 14.15759668661496
CASSIOPE                
1 39265U 13055A   26188.74905153  .00028746 -52906-6  30874-3 0  9999
2 39265  80.9132  41.7143 0284809 353.1518   6.5852 15.27038160670807
APRIZESAT 7             
1 39416U 13066A   26188.81597981  .00001131  00000+0  11693-3 0  9990
2 39416  97.7717 141.7407 0036733 141.0059 219.3819 14.91608303684308
ZACUBE-1 (TSHEPISOSAT)  
1 39417U 13066B   26188.46989733  .00001831  00000+0  14444-3 0  9996
2 39417  97.8022 150.9081 0043509 179.9834 180.1399 15.01305441683776
APRIZESAT 8             
1 39425U 13066K   26188.79046399  .00000685  00000+0  80082-4 0  9991
2 39425  97.8227 135.9721 0044887 216.6040 143.2107 14.87688679682736
